ONEWEB-0020             
1 45133U 20008C   25279.00481365  .00000605  00000+0  16974-2 0  9997
2 45133  87.8743  86.9372 0001845  89.6167 270.5172 13.10371272275055
ONEWEB-0021             
1 45134U 20008D   25279.17245169 -.00000083  00000+0 -27396-3 0  9999
2 45134  87.8741  86.9378 0001528  93.1594 266.9708 13.10369635275382
ONEWEB-0023             
1 45136U 20008F   25279.18323541 -.00000562  00000+0 -16469-2 0  9993
2 45136  87.8744  86.9178 0001751  83.3613 276.7714 13.10372077274813
ONEWEB-0024             
1 45137U 20008G   25279.00315081  .00000641  00000+0  18004-2 0  9998
2 45137  87.8761  86.9099 0001612  92.9136 267.2176 13.10373223274953
ONEWEB-0025             
1 45138U 20008H   25279.17327659 -.00000103  00000+0 -33266-3 0  9994
2 45138  87.8755  86.8854 0001240  72.3560 287.7703 13.10369359275303
ONEWEB-0026             
1 45139U 20008J   25279.16661638  .00000000  00000+0 -35266-4 0  9990
2 45139  87.8809  71.6567 0001764  98.0447 262.0881 13.11418219277819
ONEWEB-0028             
1 45140U 20008K   25279.12337759  .00000244  00000+0  65187-3 0  9995
2 45140  87.8799  71.6851 0001246  73.0248 287.1017 13.11413902275329
ONEWEB-0032             
1 45141U 20008L   25279.18903843 -.00000660  00000+0 -19259-2 0  9997
2 45141  87.8748  86.9177 0001541  85.0514 275.0789 13.10371740275033
